{
    "links": {
        "self": "http://www.neowsapp.com/rest/v1/neo/3674745?api_key=iIulBulltgU6a56xZRHN4H3l9WmuAYTsLGpBGhQ2"
    },
    "id": "3674745",
    "neo_reference_id": "3674745",
    "name": "(2014 NV63)",
    "designation": "2014 NV63",
    "nasa_jpl_url": "http://ssd.jpl.nasa.gov/sbdb.cgi?sstr=3674745",
    "absolute_magnitude_h": 23.4,
    "estimated_diameter": {
        "kilometers": {
            "estimated_diameter_min": 0.0555334912,
            "estimated_diameter_max": 0.1241766613
        },
        "meters": {
            "estimated_diameter_min": 55.5334911581,
            "estimated_diameter_max": 124.1766612574
        },
        "miles": {
            "estimated_diameter_min": 0.0345069009,
            "estimated_diameter_max": 0.0771597762
        },
        "feet": {
            "estimated_diameter_min": 182.1964991311,
            "estimated_diameter_max": 407.4037573197
        }
    },
    "is_potentially_hazardous_asteroid": false,
    "close_approach_data": [
        {
            "close_approach_date": "1967-10-22",
            "close_approach_date_full": "1967-Oct-22 18:26",
            "epoch_date_close_approach": -69226440000,
            "relative_velocity": {
                "kilometers_per_second": "12.95434783",
                "kilometers_per_hour": "46635.6521878909",
                "miles_per_hour": "28977.5806608592"
            },
            "miss_distance": {
                "astronomical": "0.0898122893",
                "lunar": "34.9369805377",
                "kilometers": "13435727.179103791",
                "miles": "8348573.7405866758"
            },
            "orbiting_body": "Mars"
        },
        {
            "close_approach_date": "2014-06-20",
            "close_approach_date_full": "2014-Jun-20 03:49",
            "epoch_date_close_approach": 1403236140000,
            "relative_velocity": {
                "kilometers_per_second": "11.2858917501",
                "kilometers_per_hour": "40629.2103003427",
                "miles_per_hour": "25245.411255788"
            },
            "miss_distance": {
                "astronomical": "0.1155384266",
                "lunar": "44.9444479474",
                "kilometers": "17284302.522511342",
                "miles": "10739967.5685748396"
            },
            "orbiting_body": "Earth"
        }
    ],
    "orbital_data": {
        "orbit_id": "3",
        "orbit_determination_date": "2017-04-06 08:39:39",
        "first_observation_date": "2014-07-03",
        "last_observation_date": "2014-07-17",
        "data_arc_in_days": 14,
        "observations_used": 12,
        "orbit_uncertainty": "8",
        "minimum_orbit_intersection": ".0559838",
        "jupiter_tisserand_invariant": "5.137",
        "epoch_osculation": "2456842.5",
        "eccentricity": ".4718085944649177",
        "semi_major_axis": "1.213649016633544",
        "inclination": "3.424114474586935",
        "ascending_node_longitude": "161.2642953660474",
        "orbital_period": "488.3577558767406",
        "perihelion_distance": ".6410389799219419",
        "perihelion_argument": "13.94067657995978",
        "aphelion_distance": "1.786259053345146",
        "perihelion_time": "2456768.031334184386",
        "mean_anomaly": "54.8956566595155",
        "mean_motion": ".737164498091564",
        "equinox": "J2000",
        "orbit_class": {
            "orbit_class_type": "APO",
            "orbit_class_description": "Near-Earth asteroid orbits which cross the Earth’s orbit similar to that of 1862 Apollo",
            "orbit_class_range": "a (semi-major axis) > 1.0 AU; q (perihelion) < 1.017 AU"
        }
    },
    "is_sentry_object": false
}